{
    "links": {
        "self": "http://www.neowsapp.com/rest/v1/neo/3840876?api_key=iIulBulltgU6a56xZRHN4H3l9WmuAYTsLGpBGhQ2"
    },
    "id": "3840876",
    "neo_reference_id": "3840876",
    "name": "(2019 GM5)",
    "designation": "2019 GM5",
    "nasa_jpl_url": "http://ssd.jpl.nasa.gov/sbdb.cgi?sstr=3840876",
    "absolute_magnitude_h": 23.4,
    "estimated_diameter": {
        "kilometers": {
            "estimated_diameter_min": 0.0555334912,
            "estimated_diameter_max": 0.1241766613
        },
        "meters": {
            "estimated_diameter_min": 55.5334911581,
            "estimated_diameter_max": 124.1766612574
        },
        "miles": {
            "estimated_diameter_min": 0.0345069009,
            "estimated_diameter_max": 0.0771597762
        },
        "feet": {
            "estimated_diameter_min": 182.1964991311,
            "estimated_diameter_max": 407.4037573197
        }
    },
    "is_potentially_hazardous_asteroid": false,
    "close_approach_data": [
        {
            "close_approach_date": "2019-04-02",
            "close_approach_date_full": "2019-Apr-02 03:48",
            "epoch_date_close_approach": 1554176880000,
            "relative_velocity": {
                "kilometers_per_second": "4.3579815009",
                "kilometers_per_hour": "15688.7334033105",
                "miles_per_hour": "9748.368819407"
            },
            "miss_distance": {
                "astronomical": "0.280896295",
                "lunar": "109.268658755",
                "kilometers": "42021487.42289165",
                "miles": "26110941.50413877"
            },
            "orbiting_body": "Earth"
        }
    ],
    "orbital_data": {
        "orbit_id": "2",
        "orbit_determination_date": "2019-04-16 07:28:59",
        "first_observation_date": "2019-04-05",
        "last_observation_date": "2019-04-15",
        "data_arc_in_days": 10,
        "observations_used": 17,
        "orbit_uncertainty": "8",
        "minimum_orbit_intersection": ".278163",
        "jupiter_tisserand_invariant": "3.414",
        "epoch_osculation": "2458579.5",
        "eccentricity": ".4531654756271443",
        "semi_major_axis": "2.333504790748054",
        "inclination": "7.27592215657821",
        "ascending_node_longitude": ".5410582064411749",
        "orbital_period": "1302.001462703022",
        "perihelion_distance": "1.276040982370492",
        "perihelion_argument": "188.8282955332415",
        "aphelion_distance": "3.390968599125615",
        "perihelion_time": "2458570.752670723043",
        "mean_anomaly": "2.418613672804141",
        "mean_motion": ".2764973852276797",
        "equinox": "J2000",
        "orbit_class": {
            "orbit_class_type": "AMO",
            "orbit_class_description": "Near-Earth asteroid orbits similar to that of 1221 Amor",
            "orbit_class_range": "1.017 AU < q (perihelion) < 1.3 AU"
        }
    },
    "is_sentry_object": false
}